{"type": "FeatureCollection", "features": [ {"type": "Feature", "properties": {"norad_id": 40697, "name": "SENTINEL-2A", "group": "resource", "lat": 6.227563813382586, "lon": 57.06190932835708, "alt_km": 791.0374702625186, "timestamp": "2025-12-11T10:53:15.542106+00:00", "meta": {"OBJECT_NAME": "SENTINEL-2A", "OBJECT_ID": "2015-028A", "EPOCH": "2025-12-11T04:08:41.979840", "MEAN_MOTION": 14.30814054, "ECCENTRICITY": 0.0001067, "INCLINATION": 98.5693, "RA_OF_ASC_NODE": 57.7278, "ARG_OF_PERICENTER": 92.8582, "MEAN_ANOMALY": 267.2723, "EPHEMERIS_TYPE": 0, "CLASSIFICATION_TYPE": "U", "NORAD_CAT_ID": 40697, "ELEMENT_SET_NO": 999, "REV_AT_EPOCH": 54684, "BSTAR": 0.00023033, "MEAN_MOTION_DOT": 5.6e-06, "MEAN_MOTION_DDOT": 0}, "tle": {"line1": "1 40697U 15028A   25345.17270810  .00000560  00000+0  23033-3 0  9991", "line2": "2 40697  98.5693  57.7278 0001067  92.8582 267.2723 14.30814054546848"}}, "geometry": {"type": "Point", "coordinates": [57.06190932835708, 6.227563813382586]}}, {"type": "Feature", "properties": {"norad_id": 40701, "name": "GAOFEN-8", "group": "resource", "lat": -80.6180728042062, "lon": -141.58496247811067, "alt_km": 463.4309917053497, "timestamp": "2025-12-11T10:53:15.542117+00:00", "meta": {"OBJECT_NAME": "GAOFEN-8", "OBJECT_ID": "2015-030A", "EPOCH": "2025-12-11T05:00:42.435072", "MEAN_MOTION": 15.38454937, "ECCENTRICITY": 0.0011599, "INCLINATION": 97.6916, "RA_OF_ASC_NODE": 163.2746, "ARG_OF_PERICENTER": 143.0301, "MEAN_ANOMALY": 217.1744, "EPHEMERIS_TYPE": 0, "CLASSIFICATION_TYPE": "U", "NORAD_CAT_ID": 40701, "ELEMENT_SET_NO": 999, "REV_AT_EPOCH": 58247, "BSTAR": 0.00045944, "MEAN_MOTION_DOT": 0.00017398, "MEAN_MOTION_DDOT": 0}, "tle": {"line1": "1 40701U 15030A   25345.20882448  .00017398  00000+0  45944-3 0  9992", "line2": "2 40701  97.6916 163.2746 0011599 143.0301 217.1744 15.38454937582479"}}, "geometry": {"type": "Point", "coordinates": [-141.58496247811067, -80.6180728042062]}}, {"type": "Feature", "properties": {"norad_id": 40718, "name": "CARBONITE 1 (CBNT-1)", "group": "resource", "lat": 73.69671534751754, "lon": 13.874436504485525, "alt_km": 612.1667952773059, "timestamp": "2025-12-11T10:53:15.542127+00:00", "meta": {"OBJECT_NAME": "CARBONITE 1 (CBNT-1)", "OBJECT_ID": "2015-032D", "EPOCH": "2025-12-11T03:56:20.764608", "MEAN_MOTION": 14.82729462, "ECCENTRICITY": 0.0014218, "INCLINATION": 97.6404, "RA_OF_ASC_NODE": 166.278, "ARG_OF_PERICENTER": 186.7282, "MEAN_ANOMALY": 173.3743, "EPHEMERIS_TYPE": 0, "CLASSIFICATION_TYPE": "U", "NORAD_CAT_ID": 40718, "ELEMENT_SET_NO": 999, "REV_AT_EPOCH": 56147, "BSTAR": 0.00034194, "MEAN_MOTION_DOT": 2.715e-05, "MEAN_MOTION_DDOT": 0}, "tle": {"line1": "1 40718U 15032D   25345.16412922  .00002715  00000+0  34194-3 0  9995", "line2": "2 40718  97.6404 166.2780 0014218 186.7282 173.3743 14.82729462561478"}}, "geometry": {"type": "Point", "coordinates": [13.874436504485525, 73.69671534751754]}}, {"type": "Feature", "properties": {"norad_id": 40878, "name": "YAOGAN-27", "group": "resource", "lat": -32.75011516080484, "lon": 148.5475002385626, "alt_km": 1204.4120042022405, "timestamp": "2025-12-11T10:53:15.542138+00:00", "meta": {"OBJECT_NAME": "YAOGAN-27", "OBJECT_ID": "2015-040A", "EPOCH": "2025-12-11T04:19:59.317824", "MEAN_MOTION": 13.16061542, "ECCENTRICITY": 0.0007629, "INCLINATION": 100.1013, "RA_OF_ASC_NODE": 334.8706, "ARG_OF_PERICENTER": 290.7963, "MEAN_ANOMALY": 69.2333, "EPHEMERIS_TYPE": 0, "CLASSIFICATION_TYPE": "U", "NORAD_CAT_ID": 40878, "ELEMENT_SET_NO": 999, "REV_AT_EPOCH": 49293, "BSTAR": 0.0013649, "MEAN_MOTION_DOT": 4.76e-06, "MEAN_MOTION_DDOT": 0}, "tle": {"line1": "1 40878U 15040A   25345.18054766  .00000476  00000+0  13649-2 0  9994", "line2": "2 40878 100.1013 334.8706 0007629 290.7963  69.2333 13.16061542492938"}}, "geometry": {"type": "Point", "coordinates": [148.5475002385626, -32.75011516080484]}}, {"type": "Feature", "properties": {"norad_id": 40894, "name": "GAOFEN-9 01", "group": "resource", "lat": 26.448632547336206, "lon": 20.628665874666584, "alt_km": 601.2221809357088, "timestamp": "2025-12-11T10:53:15.542148+00:00", "meta": {"OBJECT_NAME": "GAOFEN-9 01", "OBJECT_ID": "2015-047A", "EPOCH": "2025-12-11T04:17:17.870784", "MEAN_MOTION": 14.82415643, "ECCENTRICITY": 0.002851, "INCLINATION": 97.6544, "RA_OF_ASC_NODE": 24.2016, "ARG_OF_PERICENTER": 39.2249, "MEAN_ANOMALY": 321.1023, "EPHEMERIS_TYPE": 0, "CLASSIFICATION_TYPE": "U", "NORAD_CAT_ID": 40894, "ELEMENT_SET_NO": 999, "REV_AT_EPOCH": 55233, "BSTAR": 0.00022592, "MEAN_MOTION_DOT": 1.772e-05, "MEAN_MOTION_DDOT": 0}, "tle": {"line1": "1 40894U 15047A   25345.17867906  .00001772  00000+0  22592-3 0  9994", "line2": "2 40894  97.6544  24.2016 0028510  39.2249 321.1023 14.82415643552330"}}, "geometry": {"type": "Point", "coordinates": [20.628665874666584, 26.448632547336206]}}, {"type": "Feature", "properties": {"norad_id": 41026, "name": "YAOGAN-28", "group": "resource", "lat": -15.576168639945875, "lon": 125.32434488293808, "alt_km": 504.7061960653964, "timestamp": "2025-12-11T10:53:15.542159+00:00", "meta": {"OBJECT_NAME": "YAOGAN-28", "OBJECT_ID": "2015-064A", "EPOCH": "2025-12-11T04:39:16.366752", "MEAN_MOTION": 15.24311398, "ECCENTRICITY": 0.001233, "INCLINATION": 97.2805, "RA_OF_ASC_NODE": 123.0297, "ARG_OF_PERICENTER": 131.0186, "MEAN_ANOMALY": 229.212, "EPHEMERIS_TYPE": 0, "CLASSIFICATION_TYPE": "U", "NORAD_CAT_ID": 41026, "ELEMENT_SET_NO": 999, "REV_AT_EPOCH": 56201, "BSTAR": 0.00057492, "MEAN_MOTION_DOT": 0.00014028, "MEAN_MOTION_DDOT": 0}, "tle": {"line1": "1 41026U 15064A   25345.19393943  .00014028  00000+0  57492-3 0  9993", "line2": "2 41026  97.2805 123.0297 0012330 131.0186 229.2120 15.24311398562018"}}, "geometry": {"type": "Point", "coordinates": [125.32434488293808, -15.576168639945875]}}, {"type": "Feature", "properties": {"norad_id": 41038, "name": "YAOGAN-29", "group": "resource", "lat": -81.58968378180718, "lon": 81.14603880070116, "alt_km": 627.5162884691517, "timestamp": "2025-12-11T10:53:15.542170+00:00", "meta": {"OBJECT_NAME": "YAOGAN-29", "OBJECT_ID": "2015-069A", "EPOCH": "2025-12-11T04:48:13.856832", "MEAN_MOTION": 14.82877588, "ECCENTRICITY": 3.12e-05, "INCLINATION": 98.022, "RA_OF_ASC_NODE": 8.3667, "ARG_OF_PERICENTER": 338.7179, "MEAN_ANOMALY": 21.4021, "EPHEMERIS_TYPE": 0, "CLASSIFICATION_TYPE": "U", "NORAD_CAT_ID": 41038, "ELEMENT_SET_NO": 999, "REV_AT_EPOCH": 54276, "BSTAR": 1.9516e-05, "MEAN_MOTION_DOT": 1.04e-06, "MEAN_MOTION_DDOT": 0}, "tle": {"line1": "1 41038U 15069A   25345.20016038  .00000104  00000+0  19516-4 0  9996", "line2": "2 41038  98.0220   8.3667 0000312 338.7179  21.4021 14.82877588542765"}}, "geometry": {"type": "Point", "coordinates": [81.14603880070116, -81.58968378180718]}}, {"type": "Feature", "properties": {"norad_id": 41167, "name": "KENT RIDGE 1", "group": "resource", "lat": -10.810686775459578, "lon": 175.1111222065083, "alt_km": 504.9575832885894, "timestamp": "2025-12-11T10:53:15.542181+00:00", "meta": {"OBJECT_NAME": "KENT RIDGE 1", "OBJECT_ID": "2015-077B", "EPOCH": "2025-12-10T22:30:20.164032", "MEAN_MOTION": 15.21613004, "ECCENTRICITY": 0.0008534, "INCLINATION": 14.9787, "RA_OF_ASC_NODE": 224.5126, "ARG_OF_PERICENTER": 105.1226, "MEAN_ANOMALY": 255.004, "EPHEMERIS_TYPE": 0, "CLASSIFICATION_TYPE": "U", "NORAD_CAT_ID": 41167, "ELEMENT_SET_NO": 999, "REV_AT_EPOCH": 55236, "BSTAR": 0.000254, "MEAN_MOTION_DOT": 6.673e-05, "MEAN_MOTION_DDOT": 0}, "tle": {"line1": "1 41167U 15077B   25344.93773338  .00006673  00000+0  25400-3 0  9995", "line2": "2 41167  14.9787 224.5126 0008534 105.1226 255.0040 15.21613004552366"}}, "geometry": {"type": "Point", "coordinates": [175.1111222065083, -10.810686775459578]}}, {"type": "Feature", "properties": {"norad_id": 41194, "name": "GAOFEN-4", "group": "resource", "lat": -0.1628279625286076, "lon": -10.563322589128951, "alt_km": 35800.83174346547, "timestamp": "2025-12-11T10:53:15.542197+00:00", "meta": {"OBJECT_NAME": "GAOFEN-4", "OBJECT_ID": "2015-083A", "EPOCH": "2025-12-11T00:19:06.646368", "MEAN_MOTION": 1.00270154, "ECCENTRICITY": 0.0003561, "INCLINATION": 0.1664, "RA_OF_ASC_NODE": 80.8595, "ARG_OF_PERICENTER": 106.7629, "MEAN_ANOMALY": 2.8369, "EPHEMERIS_TYPE": 0, "CLASSIFICATION_TYPE": "U", "NORAD_CAT_ID": 41194, "ELEMENT_SET_NO": 999, "REV_AT_EPOCH": 3664, "BSTAR": 0, "MEAN_MOTION_DOT": -3.29e-06, "MEAN_MOTION_DDOT": 0}, "tle": {"line1": "1 41194U 15083A   25345.01327137 -.00000329  00000+0  00000+0 0  9992", "line2": "2 41194   0.1664  80.8595 0003561 106.7629   2.8369  1.00270154 36646"}}, "geometry": {"type": "Point", "coordinates": [-10.563322589128951, -0.1628279625286076]}}, {"type": "Feature", "properties": {"norad_id": 41240, "name": "JASON-3", "group": "resource", "lat": 58.87766355864758, "lon": -66.9040541196413, "alt_km": 1309.551288376554, "timestamp": "2025-12-11T10:53:15.542209+00:00", "meta": {"OBJECT_NAME": "JASON-3", "OBJECT_ID": "2016-002A", "EPOCH": "2025-12-11T04:43:24.794400", "MEAN_MOTION": 12.87626444, "ECCENTRICITY": 0.0007154, "INCLINATION": 66.0389, "RA_OF_ASC_NODE": 161.0681, "ARG_OF_PERICENTER": 270.7393, "MEAN_ANOMALY": 89.2806, "EPHEMERIS_TYPE": 0, "CLASSIFICATION_TYPE": "U", "NORAD_CAT_ID": 41240, "ELEMENT_SET_NO": 999, "REV_AT_EPOCH": 46304, "BSTAR": 9.2565e-05, "MEAN_MOTION_DOT": -3.9e-07, "MEAN_MOTION_DDOT": 0}, "tle": {"line1": "1 41240U 16002A   25345.19681475 -.00000039  00000+0  92565-4 0  9993", "line2": "2 41240  66.0389 161.0681 0007154 270.7393  89.2806 12.87626444463040"}}, "geometry": {"type": "Point", "coordinates": [-66.9040541196413, 58.87766355864758]}}]}